     2.100          NAVIGATION                              RINEX VERSION / TYPE
fic2rin                                 07/10/2017 00:16:19 PGM / RUN BY / DATE
                                                            END OF HEADER
 5 17  7  9 11 59 44.0 -.380296260118D-04  .159161572810D-11  .000000000000D+00
     .100000000000D+01  .186562500000D+02  .480055710533D-08  .592454172952D+00
     .110641121864D-05  .505007186439D-02  .787526369095D-05  .515377892685D+04
     .431840000000D+05 -.130385160446D-07 -.224186310328D+01  .931322574615D-07
     .946773550564D+00  .219687500000D+03  .547953253892D+00 -.810033741157D-08
     .588595945955D-09  .100000000000D+01  .195700000000D+04  .000000000000D+00
     .240000000000D+01  .000000000000D+00 -.107102096081D-07  .100000000000D+01
     .360060000000D+05  .400000000000D+01
15 17  7  9 11 59 44.0 -.353027600795D-03 -.568434188608D-12  .000000000000D+00
     .120000000000D+02 -.164687500000D+02  .565237830139D-08 -.107492751351D+01
    -.743195414543D-06  .932028598618D-02  .439025461674D-05  .515355859756D+04
     .431840000000D+05  .217929482460D-06 -.125078743691D+01 -.372529029846D-08
     .928562346097D+00  .271062500000D+03  .582863865728D+00 -.856642825469D-08
    -.985755346381D-10  .100000000000D+01  .195700000000D+04  .000000000000D+00
     .240000000000D+01  .000000000000D+00 -.107102096081D-07  .120000000000D+02
     .360060000000D+05  .400000000000D+01
17 17  7  9 11 59 44.0 -.170423649251D-03  .204636307899D-11  .000000000000D+00
     .400000000000D+01 -.730937500000D+02  .440518349357D-08 -.197271713204D+00
    -.374019145966D-05  .116642399225D-01  .186264514923D-05  .515365303421D+04
     .431840000000D+05 -.104308128357D-06  .201174287831D+01  .150874257088D-06
     .980196082130D+00  .355250000000D+03 -.184822067934D+01 -.847606734794D-08
    -.334299639208D-09  .100000000000D+01  .195700000000D+04  .000000000000D+00
     .240000000000D+01  .000000000000D+00 -.111758708954D-07  .400000000000D+01
     .360060000000D+05  .400000000000D+01
21 17  7  9 11 59 44.0 -.495604705065D-03  .250111042988D-11  .000000000000D+00
     .630000000000D+02 -.110312500000D+03  .441875548747D-08  .216256989174D+01
    -.589899718761D-05  .239421615843D-01  .919960439205D-05  .515365797424D+04
     .431840000000D+05  .366941094398D-06  .297153549277D+01 -.251457095146D-06
     .940654761109D+00  .186312500000D+03 -.165963653880D+01 -.762496046735D-08
    -.660741808263D-10  .100000000000D+01  .195700000000D+04  .000000000000D+00
     .240000000000D+01  .000000000000D+00 -.977888703346D-08  .630000000000D+02
     .360060000000D+05  .400000000000D+01
23 17  7  9 11 59 44.0 -.214794185013D-03 -.568434188608D-12  .000000000000D+00
     .130000000000D+02 -.192500000000D+02  .522164607395D-08 -.155409961266D+01
    -.110082328320D-05  .118545592995D-01  .482425093651D-05  .515371019936D+04
     .431840000000D+05  .193715095520D-06 -.118668703192D+01 -.689178705215D-07
     .943848533640D+00  .269687500000D+03 -.244181518816D+01 -.822855703814D-08
    -.864321716755D-10  .100000000000D+01  .195700000000D+04  .000000000000D+00
     .240000000000D+01  .000000000000D+00 -.204890966415D-07  .130000000000D+02
     .360060000000D+05  .400000000000D+01
29 17  7  9 11 59 44.0  .587199814618D-03 -.386535248253D-11  .000000000000D+00
     .100000000000D+02 -.692812500000D+02  .420731810883D-08  .129463797185D+01
    -.362843275070D-05  .651030568406D-03  .204704701900D-05  .515360289955D+04
     .431840000000D+05 -.558793544769D-08  .202193326136D+01 -.745058059692D-08
     .981337389373D+00  .351406250000D+03  .634709868248D+00 -.811212361680D-08
    -.329299430929D-09  .100000000000D+01  .195700000000D+04  .000000000000D+00
     .240000000000D+01  .000000000000D+00 -.977888703346D-08  .100000000000D+02
     .360060000000D+05  .400000000000D+01
31 17  7  9 11 59 44.0  .189536716789D-03 -.238742359215D-11  .000000000000D+00
     .270000000000D+02  .478437500000D+02  .419410327266D-08  .309232754870D+01
     .258721411228D-05  .843528495170D-02  .111013650894D-04  .515374034119D+04
     .431840000000D+05 -.126659870148D-06 -.986845300811D-01  .689178705215D-07
     .966991154492D+00  .169156250000D+03 -.252640883278D+00 -.754638576583D-08
    -.251796202608D-09  .100000000000D+01  .195700000000D+04  .000000000000D+00
     .240000000000D+01  .000000000000D+00 -.135041773319D-07  .270000000000D+02
     .360060000000D+05  .400000000000D+01
 1 17  7  9 12  0  0.0  .566593371332D-04  .341060513165D-12  .000000000000D+00
     .540000000000D+02 -.105156250000D+03  .379158650623D-08 -.235005687591D+01
    -.540539622307D-05  .685360212810D-02  .111572444439D-04  .515369419670D+04
     .432000000000D+05 -.353902578354D-07  .301672837354D+01 -.204890966415D-07
     .968330318479D+00  .167437500000D+03  .577529588037D+00 -.755352892051D-08
     .796461747257D-10  .100000000000D+01  .195700000000D+04  .000000000000D+00
     .240000000000D+01  .000000000000D+00  .558793544769D-08  .540000000000D+02
     .360060000000D+05  .400000000000D+01
 2 17  7  9 12  0  0.0  .380957033485D-03 -.841282599140D-11  .000000000000D+00
     .240000000000D+02 -.113000000000D+03  .429160733410D-08 -.204402724644D+01
    -.579096376896D-05  .169295818778D-01  .984407961369D-05  .515354968262D+04
     .432000000000D+05  .307336449623D-06  .296246897898D+01 -.139698386192D-06
     .947262634800D+00  .181375000000D+03 -.197291715683D+01 -.761996025907D-08
     .750031241812D-11  .100000000000D+01  .195700000000D+04  .000000000000D+00
     .240000000000D+01  .000000000000D+00 -.204890966415D-07  .240000000000D+02
     .360060000000D+05  .400000000000D+01
 3 17  7  9 12  0  0.0 -.889184884727D-04  .295585778076D-11  .000000000000D+00
     .400000000000D+02  .238437500000D+02  .451340228704D-08 -.305218459823D+01
     .132992863655D-05  .783490017056D-03  .802241265774D-05  .515369921112D+04
     .432000000000D+05  .316649675369D-07 -.222443382707D+01  .223517417908D-07
     .959808323275D+00  .224250000000D+03  .151664724210D+00 -.794997400547D-08
     .686100007391D-09  .100000000000D+01  .195700000000D+04  .000000000000D+00
     .240000000000D+01  .000000000000D+00  .232830643654D-08  .400000000000D+02
     .360060000000D+05  .400000000000D+01
 4 17  7  9 12  0  0.0 -.178334303200D-04  .341060513165D-12  .000000000000D+00
     .200000000000D+02  .696250000000D+02  .382730227965D-08 -.144713876691D+01
     .366196036339D-05  .166237973608D-01  .105183571577D-04  .515366805077D+04
     .432000000000D+05  .340864062309D-06  .153364636481D-01 -.353902578354D-07
     .986051717492D+00  .187468750000D+03 -.241934001490D+01 -.739066499372D-08
    -.692886004340D-10  .100000000000D+01  .195700000000D+04  .000000000000D+00
     .340000000000D+01  .630000000000D+02 -.512227416039D-08  .200000000000D+02
     .360060000000D+05  .400000000000D+01
 6 17  7  9 12  0  0.0  .374921131879D-03  .466116034659D-11  .000000000000D+00
     .900000000000D+02 -.109906250000D+03  .395695053716D-08 -.227379631256D+01
    -.575371086597D-05  .695998198353D-03  .105611979961D-04  .515371398354D+04
     .432000000000D+05  .614672899246D-07  .300836089467D+01  .204890966415D-07
     .968093922621D+00  .181750000000D+03 -.105783177823D+01 -.772532179066D-08
    -.453590322429D-10  .100000000000D+01  .195700000000D+04  .000000000000D+00
     .240000000000D+01  .000000000000D+00  .465661287308D-08  .900000000000D+02
     .360060000000D+05  .400000000000D+01
 7 17  7  9 12  0  0.0  .330220442265D-03 -.454747350886D-11  .000000000000D+00
     .870000000000D+02  .595312500000D+02  .421446126351D-08 -.297608323694D+01
     .293739140034D-05  .108077141922D-01  .119879841805D-04  .515373981094D+04
     .432000000000D+05 -.838190317154D-07 -.109799585616D+00 -.206753611565D-06
     .962250789356D+00  .151875000000D+03 -.258697166047D+01 -.756102923293D-08
    -.316084594764D-09  .100000000000D+01  .195700000000D+04  .000000000000D+00
     .240000000000D+01  .000000000000D+00 -.111758708954D-07  .870000000000D+02
     .360060000000D+05  .400000000000D+01
 8 17  7  9 12  0  0.0 -.658137723804D-04 -.125055521494D-11  .000000000000D+00
     .770000000000D+02 -.664375000000D+02  .459161983082D-08  .319352443431D+00
    -.360421836376D-05  .253120460548D-02  .160932540894D-05  .515365604591D+04
     .432000000000D+05 -.111758708954D-07  .195357542829D+01 -.447034835815D-07
     .966913902177D+00  .353125000000D+03 -.631038919635D+00 -.838427781025D-08
    -.347871633107D-09  .100000000000D+01  .195700000000D+04  .000000000000D+00
     .340000000000D+01  .000000000000D+00  .512227416039D-08  .770000000000D+02
     .360060000000D+05  .400000000000D+01
 9 17  7  9 12  0  0.0  .401944387704D-03  .784439180279D-11  .000000000000D+00
     .290000000000D+02 -.179375000000D+02  .505985362036D-08 -.143881363659D+00
    -.121258199215D-05  .666601932608D-03  .534020364285D-05  .515358884048D+04
     .432000000000D+05  .223517417908D-07 -.118811416995D+01  .204890966415D-07
     .952984089853D+00  .270312500000D+03  .195499069620D+01 -.824034324337D-08
    -.201436962087D-09  .100000000000D+01  .195700000000D+04  .000000000000D+00
     .240000000000D+01  .000000000000D+00  .139698386192D-08  .290000000000D+02
     .360060000000D+05  .400000000000D+01
10 17  7  9 12  0  0.0  .114040449262D-05  .120508047985D-10  .000000000000D+00
     .310000000000D+02  .227187500000D+02  .453733185523D-08  .178295489479D+01
     .117160379887D-05  .261981494259D-02  .785477459431D-05  .515366964912D+04
     .432000000000D+05 -.596046447754D-07 -.222811855490D+01  .558793544769D-08
     .959968406012D+00  .225906250000D+03 -.277991052632D+01 -.794997400547D-08
     .558594696283D-09  .100000000000D+01  .195700000000D+04  .000000000000D+00
     .240000000000D+01  .000000000000D+00  .186264514923D-08  .310000000000D+02
     .360060000000D+05  .400000000000D+01
